LEMUR-2-ANDIS           
1 42838U 17042P   26068.55941107  .00023598  00000+0  79875-3 0  9998
2 42838  97.3659 249.7950 0009101   4.3248 355.8070 15.30557934473198
STARLINK-31908          
1 59901U 24100S   26068.52828074  .00000679  00000+0  34208-4 0  9991
2 59901  43.0036 119.2585 0001348 225.6709 134.4033 15.27569115101204
